{"version": 0.6, "generator": "Overpass API 0.7.62.5 1bd436f1", "osm3s": {"timestamp_osm_base": "2025-05-13T11:05:59Z", "copyright": "The data included in this document is from www.openstreetmap.org. The data is made available under ODbL."}, "elements": [{"type": "node", "id": 448416031, "lat": 30.48908, "lon": 78.04183, "tags": {"amenity": "police"}}, {"type": "node", "id": 583884416, "lat": 30.4589803, "lon": 78.0951087, "tags": {"addr:district": "Dehradun", "addr:full": "Mussoorie", "addr:postcode": "248179", "addr:state": "Uttarakhand", "amenity": "hospital", "name": "Landour Community hospital", "source": "OpenGovernmentData"}}, {"type": "node", "id": 1697822631, "lat": 30.3250628, "lon": 78.0540411, "tags": {"amenity": "police", "name": "Daalanwala Police Station"}}, {"type": "node", "id": 1854138785, "lat": 30.3257766, "lon": 78.0428731, "tags": {"amenity": "police", "designation": "DHARA CHOWKI", "name": "Police Station"}}, {"type": "node", "id": 1887554875, "lat": 30.3328985, "lon": 78.0086156, "tags": {"addr:district": "Dehradun", "addr:full": "No. 1 Ashirwad Enclave Ballupur", "addr:postcode": "248001", "addr:state": "Uttarakhand", "amenity": "hospital", "emergency": "yes", "name": "Ashirwad Hospital", "source": "OpenGovernmentData"}}, {"type": "node", "id": 1887561123, "lat": 30.3329685, "lon": 78.0101122, "tags": {"addr:district": "Dehradun", "addr:full": "2/1 Ballupur Chowk", "addr:postcode": "248001", "addr:state": "Uttarakhand", "amenity": "hospital", "emergency": "yes", "name": "Astha Hospital", "source": "OpenGovernmentData"}}, {"type": "node", "id": 2054741736, "lat": 30.4488078, "lon": 78.0901685, "tags": {"amenity": "hospital", "emergency": "no", "name": "Wynberg Health Center"}}, {"type": "node", "id": 2364476889, "lat": 30.5720996, "lon": 78.0043453, "tags": {"amenity": "hospital"}}, {"type": "node", "id": 3376869655, "lat": 30.3525901, "lon": 78.0242322}, {"type": "node", "id": 3376869657, "lat": 30.35243, "lon": 78.0244098}, {"type": "node", "id": 3376869658, "lat": 30.3526098, "lon": 78.0245956}, {"type": "node", "id": 3519362070, "lat": 30.3301055, "lon": 78.0503148, "tags": {"amenity": "police", "name": "Police Nideshalaya"}}, {"type": "node", "id": 3709894659, "lat": 30.3380984, "lon": 78.013544, "tags": {"addr:city": "dehradun", "addr:district": "Dehradun", "addr:full": "Ballupur -Cancal Road", "addr:housenumber": "576", "addr:postcode": "248001", "addr:state": "Uttarakhand", "addr:street": "Shaheed Kashmirasingh Road", "amenity": "hospital", "emergency": "yes", "healthcare": "hospital", "healthcare:speciality": "chiropractic;gynaecology;general;ophthalmology;paediatrics;orthopaedics;psychiatry;dermatology;radiology;biology;urology;surgery;cardiology;physiotherapy;blood_check", "name": "Synergy Hospital;Synergy Institute Of Medical Science", "source": "OpenGovernmentData;local knowledge;survey"}}, {"type": "node", "id": 4165218454, "lat": 30.3430865, "lon": 77.9596015, "tags": {"addr:city": "DEHRADUN", "addr:postcode": "248001", "addr:street": "NANDA KI CHOWKI", "amenity": "hospital", "emergency": "yes", "name": "SUBHARTI HOSPITAL"}}, {"type": "node", "id": 4165237313, "lat": 30.4169652, "lon": 77.9676696, "tags": {"addr:city": "DEHRADUN", "addr:postcode": "248007", "addr:street": "UPES, BIDHOLI", "amenity": "hospital", "name": "INFIRMARY"}}, {"type": "node", "id": 5869289724, "lat": 30.3741341, "lon": 78.0757606}, {"type": "node", "id": 5869289725, "lat": 30.3744897, "lon": 78.0742579}, {"type": "node", "id": 5869289726, "lat": 30.3745978, "lon": 78.0739187}, {"type": "node", "id": 5869289727, "lat": 30.3740981, "lon": 78.0738404}, {"type": "node", "id": 5869289728, "lat": 30.3734184, "lon": 78.0740335}, {"type": "node", "id": 5869289729, "lat": 30.3729412, "lon": 78.0744248}, {"type": "node", "id": 5869289730, "lat": 30.3730897, "lon": 78.0748527}, {"type": "node", "id": 5869289731, "lat": 30.3733013, "lon": 78.0751605}, {"type": "node", "id": 5869289732, "lat": 30.373927, "lon": 78.0755832}, {"type": "node", "id": 5869289733, "lat": 30.3740216, "lon": 78.0757762}, {"type": "node", "id": 5869289734, "lat": 30.3740881, "lon": 78.075767}, {"type": "node", "id": 5893335680, "lat": 30.3400573, "lon": 78.0694594, "tags": {"addr:city": "Dehradun", "addr:postcode": "248001", "addr:street": "Sahastradhara Road", "amenity": "police", "name": "Mayur Vihar Police Chowki"}}, {"type": "node", "id": 5948004893, "lat": 30.3408071, "lon": 78.0473879}, {"type": "node", "id": 5948004894, "lat": 30.3408261, "lon": 78.047388}, {"type": "node", "id": 5948004895, "lat": 30.3408258, "lon": 78.0475556}, {"type": "node", "id": 5948004896, "lat": 30.3405882, "lon": 78.047555}, {"type": "node", "id": 5948004897, "lat": 30.3405885, "lon": 78.0473909}, {"type": "node", "id": 5948004898, "lat": 30.3406558, "lon": 78.0473911}, {"type": "node", "id": 5948004899, "lat": 30.3406558, "lon": 78.0474157}, {"type": "node", "id": 5948004900, "lat": 30.3407061, "lon": 78.0474159}, {"type": "node", "id": 5948004901, "lat": 30.3407062, "lon": 78.047356}, {"type": "node", "id": 5948004902, "lat": 30.3408072, "lon": 78.0473562}, {"type": "node", "id": 5951880716, "lat": 30.3525482, "lon": 78.0243042}, {"type": "node", "id": 5951880717, "lat": 30.3525337, "lon": 78.0242825}, {"type": "node", "id": 5951880718, "lat": 30.3525181, "lon": 78.0244577}, {"type": "node", "id": 5951880719, "lat": 30.3524828, "lon": 78.0244892}, {"type": "node", "id": 5951880720, "lat": 30.3527491, "lon": 78.0244712}, {"type": "node", "id": 6115840284, "lat": 30.3450796, "lon": 78.0188228, "tags": {"amenity": "fire_station", "name": "Fire Station"}}, {"type": "node", "id": 6327434932, "lat": 30.3631301, "lon": 78.0683109, "tags": {"addr:city": "Dehradun", "addr:postcode": "248001", "addr:street": "Rajpur-Mussoorie Road", "amenity": "police", "name": "Police Station Jakhan"}}, {"type": "node", "id": 6581821447, "lat": 30.3207776, "lon": 78.0576667, "tags": {"addr:block": "Raipur", "addr:district": "Dehradun", "addr:full": "Kharjan Road", "addr:postcode": "248001", "addr:state": "Uttarakhand", "amenity": "hospital", "healthcare": "hospital", "healthcare:speciality": "general", "name": "Deen Dayal Upadhyay hospital", "source": "OpenGovernmentData"}}, {"type": "node", "id": 6950590540, "lat": 30.327541, "lon": 78.0479398, "tags": {"addr:district": "Dehradun", "addr:full": "No. 9B, Astley Hall Dehradun & 58 Chakrata Road,Opposite Doon School", "addr:postcode": "248001", "addr:state": "Uttarakhand", "amenity": "clinic", "healthcare": "clinic", "name": "Drishti Eye Institute", "source": "OpenGovernmentData"}}, {"type": "node", "id": 6950964468, "lat": 30.3363706, "lon": 78.0223811, "tags": {"addr:district": "Dehradun", "addr:full": "Street No-1,Rajender Nagar", "addr:postcode": "248001", "addr:state": "Uttarakhand", "amenity": "hospital", "name": "Vishal Eye Hospital, Dehradun", "source": "OpenGovernmentData"}}, {"type": "node", "id": 6950969272, "lat": 30.3338774, "lon": 78.0235478, "tags": {"addr:district": "Dehradun", "addr:full": "10,Ballupur Road", "addr:postcode": "248001", "addr:state": "Uttarakhand", "amenity": "hospital", "name": "Vardaan Children Hospital", "source": "OpenGovernmentData"}}, {"type": "node", "id": 6950985617, "lat": 30.3350581, "lon": 78.0601707, "tags": {"addr:district": "Dehradun", "addr:full": "#42, Sewak Ashram Road", "addr:postcode": "248001", "addr:state": "Uttarakhand", "amenity": "clinic", "name": "Meher Hospital (Vaish Nursing Home)", "source": "OpenGovernmentData"}}, {"type": "node", "id": 6951002353, "lat": 30.382057, "lon": 78.0886424, "tags": {"addr:district": "Dehradun", "addr:full": "196, Rajpur Road", "addr:postcode": "248001", "addr:state": "Uttarakhand", "amenity": "hospital", "name": "Uttranchal Ayurvedic Hospital", "source": "OpenGovernmentData"}}, {"type": "node", "id": 6951963408, "lat": 30.3371647, "lon": 78.0219117, "tags": {"addr:district": "Dehradun", "addr:full": "30,Kaulagarh Road Rajendra Nagar", "addr:postcode": "248001", "addr:state": "Uttarakhand", "amenity": "hospital", "name": "Chandra Hospital", "source": "OpenGovernmentData", "wheelchair": "yes"}}, {"type": "node", "id": 6951994311, "lat": 30.3271255, "lon": 78.0658168, "tags": {"addr:district": "Dehradun", "addr:full": "17, New Sahastradhara Road, Dehra Dun", "addr:postcode": "248001", "addr:state": "Uttarakhand", "amenity": "hospital", "name": "Healing Touch Hospital", "source": "OpenGovernmentData"}}, {"type": "node", "id": 6952104642, "lat": 30.3316376, "lon": 78.0538367, "tags": {"addr:district": "Dehradun", "addr:full": "4,Old Survey Road", "addr:postcode": "248001", "addr:state": "Uttarakhand", "amenity": "hospital", "healthcare": "hospital", "name": "Jan Kalyan Hospital And Research Insititute", "source": "OpenGovernmentData"}}, {"type": "node", "id": 6952106515, "lat": 30.3529535, "lon": 78.0253597, "tags": {"addr:district": "Dehradun", "addr:full": "2, Ballupur Road Kishan Nagar Chowk Dehhra Dun", "addr:postcode": "248001", "addr:state": "Uttarakhand", "amenity": "clinic", "name": "Kiranti Nursing and Maternity Home", "source": "OpenGovernmentData", "website": "https://www.sgrrmc.com/"}}, {"type": "node", "id": 6952147102, "lat": 30.3236075, "lon": 78.0147126, "tags": {"addr:district": "Dehradun", "addr:full": "82, Vivek Vihar , Kanwali Road , Baliwala Chowk", "addr:postcode": "248001", "addr:state": "Uttarakhand", "amenity": "hospital", "name": "Ayurmax Multispeciality Hospital", "source": "OpenGovernmentData"}}, {"type": "node", "id": 6952166447, "lat": 30.3337941, "lon": 78.0208468, "tags": {"addr:district": "Dehradun", "addr:full": "62/57, Ballupur Road, Opposite Akash Deep Colony, Chakrata Road", "addr:postcode": "248001", "addr:state": "Uttarakhand", "amenity": "clinic", "name": "Bhartari Nursing Home", "opening_hours": "24/7", "source": "OpenGovernmentData", "wheelchair": "yes"}}, {"type": "node", "id": 6953071745, "lat": 30.3247651, "lon": 78.0046999, "tags": {"addr:district": "Dehradun", "addr:full": "7,Indira Nagar Colony", "addr:postcode": "248001", "addr:state": "Uttarakhand", "amenity": "clinic", "name": "Nisha Nursing Home", "source": "OpenGovernmentData"}}, {"type": "node", "id": 6953083990, "lat": 30.3247211, "lon": 78.0050567, "tags": {"addr:district": "Dehradun", "addr:full": "5, Indira Nagar Colony, Dehradun Uttaranchal", "addr:postcode": "248001", "addr:state": "Uttarakhand", "amenity": "hospital", "name": "Sanjivani Hospital, Dehradun", "source": "OpenGovernmentData"}}, {"type": "node", "id": 6953301802, "lat": 30.3267388, "lon": 78.0313276, "tags": {"addr:district": "Dehradun", "addr:full": "3/1, Chakrata Road(Near Bindal Bridge)", "addr:postcode": "248001", "addr:state": "Uttarakhand", "amenity": "clinic", "name": "Tewari Nursing Home", "source": "OpenGovernmentData"}}, {"type": "node", "id": 6953552525, "lat": 30.3644053, "lon": 78.0677506, "tags": {"addr:district": "Dehradun", "addr:full": "20/3, Doon Vihar , Line -2 Jakhan Rajpur Road", "addr:postcode": "248001", "addr:state": "Uttarakhand", "amenity": "hospital", "name": "Sanjay Orthopaedic and Spine Centre", "source": "OpenGovernmentData"}}, {"type": "node", "id": 6954999767, "lat": 30.3324791, "lon": 78.0223086, "tags": {"addr:district": "Dehradun", "addr:full": "123-A, Mahindra Vihar, Behind Hotel Surbhi Palace,Ballupur", "addr:postcode": "248001", "addr:state": "Uttarakhand", "amenity": "hospital", "name": "Archana Hospital & Lithotripsy Centre", "source": "OpenGovernmentData"}}, {"type": "node", "id": 6956686298, "lat": 30.3409877, "lon": 78.0593446, "tags": {"addr:district": "Dehradun", "addr:full": "Chandralok Colony, Rajpura Road", "addr:postcode": "248001", "addr:state": "Uttarakhand", "amenity": "hospital", "name": "Saini Ivf and Fertility Research Centre", "source": "OpenGovernmentData"}}, {"type": "node", "id": 6957139340, "lat": 30.3270514, "lon": 78.0314027, "tags": {"addr:district": "Dehradun", "addr:full": "3-A, Chakrata Road, (Near Bindal Service Station), Dehradun, Uttaranchal", "addr:postcode": "248001", "addr:state": "Uttarakhand", "amenity": "clinic", "name": "The Eye Clinic Centre For Retina and Laser", "source": "OpenGovernmentData"}}, {"type": "node", "id": 6957923810, "lat": 30.3263904, "lon": 78.0428866, "tags": {"addr:district": "Dehradun", "addr:full": "11/9 Rajpur Road", "addr:postcode": "248001", "addr:state": "Uttarakhand", "amenity": "clinic", "name": "Dr. Rukmani Nursing Home", "source": "OpenGovernmentData"}}, {"type": "node", "id": 6957931047, "lat": 30.3288236, "lon": 78.0524835, "tags": {"addr:district": "Dehradun", "addr:full": "12, East Canal Road", "addr:postcode": "248001", "addr:state": "Uttarakhand", "amenity": "hospital", "healthcare": "hospital", "name": "S. K. Memorial Hospital", "source": "OpenGovernmentData"}}, {"type": "node", "id": 6958050453, "lat": 30.3792619, "lon": 78.0881622, "tags": {"addr:district": "Dehradun", "addr:full": "Rajpur Road", "addr:postcode": "248009", "addr:state": "Uttarakhand", "amenity": "hospital", "name": "Sakya Hospital", "source": "OpenGovernmentData"}}, {"type": "node", "id": 7121752339, "lat": 30.4564283, "lon": 78.0809098, "tags": {"addr:block": "Sahaspur", "addr:district": "Dehradun", "addr:full": "Mussoorie, Maal Road, St. Marry Hosp. Mussoorie", "addr:postcode": "248179", "addr:state": "Uttarakhand", "addr:subdistrict": "Dehradun", "amenity": "hospital", "description": "Sub-District Hospital", "name": "St. Marry Hospital Mussoorie", "source": "OpenGovernmentData"}}, {"type": "node", "id": 7121752353, "lat": 30.3354898, "lon": 77.9668266, "tags": {"addr:block": "Sahaspur", "addr:district": "Dehradun", "addr:full": "Premnagar, Dehradun, Tyagi market", "addr:postcode": "248001", "addr:state": "Uttarakhand", "amenity": "hospital", "name": "Government Hospital premnagar Dehradun", "source": "OpenGovernmentData"}}, {"type": "node", "id": 7479937214, "lat": 30.3341892, "lon": 78.0621234, "tags": {"addr:district": "Dehradun", "addr:full": "Dl Road, Kandholi, Chowk, Dehradun", "addr:postcode": "248001", "addr:state": "Uttarakhand", "amenity": "clinic", "name": "Mother and Child Care Clinic", "source": "Local Knowledge"}}, {"type": "node", "id": 7479937222, "lat": 30.3339887, "lon": 77.963263, "tags": {"addr:district": "Dehradun", "addr:full": "55, Tyagi Market, Shahpur, Prem Nagar, Dehradun", "addr:postcode": "248007", "addr:state": "Uttarakhand", "amenity": "clinic", "name": "Swasthya Multispeciality Clinic", "source": "Local Knowledge"}}, {"type": "node", "id": 7479937232, "lat": 30.346949, "lon": 77.9664382, "tags": {"addr:district": "Dehradun", "addr:full": "44, Kotla Santoor, Nanda Ki Chowki, Dehradun", "addr:postcode": "248007", "addr:state": "Uttarakhand", "amenity": "hospital", "name": "Lakva Hospital", "source": "Local Knowledge"}}, {"type": "node", "id": 7479937236, "lat": 30.3379039, "lon": 78.0568731, "tags": {"addr:district": "Dehradun", "addr:full": "76-B, 2nd Floor, Rajpur Road, Dehradun", "addr:postcode": "248001", "addr:state": "Uttarakhand", "amenity": "clinic", "name": "New Look Laser Clinic", "source": "Local Knowledge"}}, {"type": "node", "id": 7479937240, "lat": 30.3323513, "lon": 78.0631525, "tags": {"addr:district": "Dehradun", "addr:full": "123, DL Road, Kandholi, Chironwali", "addr:postcode": "248001", "addr:state": "Uttarakhand", "amenity": "clinic", "name": "Dr. Bangali Clinic", "source": "Local Knowledge"}}, {"type": "node", "id": 7479937246, "lat": 30.3343136, "lon": 77.9673178, "tags": {"addr:district": "Dehradun", "addr:full": "Special Wing, Prem Nagar, Dehradun", "addr:postcode": "248007", "addr:state": "Uttarakhand", "amenity": "hospital", "name": "Vohra Mother & Child Care Hospital", "source": "Local Knowledge"}}, {"type": "node", "id": 7479937249, "lat": 30.3362313, "lon": 77.9605297, "tags": {"addr:district": "Dehradun", "addr:full": "Thakurpur Road, Tyagi Market, Shahpur, Prem Nagar", "addr:postcode": "248001", "addr:state": "Uttarakhand", "amenity": "clinic", "name": "Dr. Satish Kumar-Dental Clinic", "source": "Local Knowledge"}}, {"type": "node", "id": 7479937255, "lat": 30.3287647, "lon": 78.0659147, "tags": {"addr:district": "Dehradun", "addr:full": "No. 82, Sahastradhara Road, Opposite Times Square Mall, Aamwala", "addr:postcode": "248001", "addr:state": "Uttarakhand", "amenity": "hospital", "name": "Healing Touch Hospital, Dehradun", "source": "Local Knowledge"}}, {"type": "node", "id": 7479937257, "lat": 30.3333289, "lon": 77.9609727, "tags": {"addr:district": "Dehradun", "addr:full": "Panditwari, Po Prem Nagar, Rajpur Road", "addr:postcode": "248007", "addr:state": "Uttarakhand", "amenity": "clinic", "name": "M.M. Gupta Clinic", "source": "Local Knowledge"}}, {"type": "node", "id": 7479937267, "lat": 30.3437396, "lon": 77.9664615, "tags": {"addr:district": "Dehradun", "addr:full": "Subhartipuram, Kotra Santour, Prem Nagar, Shahpur Santore", "addr:postcode": "248007", "addr:state": "Uttarakhand", "amenity": "hospital", "name": "Subharti Hospital and College", "source": "Local Knowledge"}}, {"type": "node", "id": 7479937293, "lat": 30.3375992, "lon": 78.0138545, "tags": {"addr:district": "Dehradun", "addr:full": "Uddiwala, Dehradun", "addr:postcode": "248001", "addr:state": "Uttarakhand", "amenity": "hospital", "name": "Synergy Hospital", "source": "Local Knowledge"}}, {"type": "node", "id": 7479937298, "lat": 30.3409589, "lon": 78.0506694, "tags": {"addr:district": "Dehradun", "addr:full": "16, New Cantonment Road, Ravindrapuri, Hathibarkala, Dehradun", "addr:postcode": "248001", "addr:state": "Uttarakhand", "amenity": "clinic", "name": "Amoli Clinic", "source": "Local Knowledge"}}, {"type": "node", "id": 7479937300, "lat": 30.3378635, "lon": 77.9593852, "tags": {"addr:district": "Dehradun", "addr:full": "Prem Nagar, Dehradun, Uttarakhand", "addr:postcode": "248007", "addr:state": "Uttarakhand", "amenity": "hospital", "name": "Government Hospital, Dehradun", "source": "Local Knowledge"}}, {"type": "node", "id": 7479937304, "lat": 30.3299169, "lon": 78.0299292, "tags": {"addr:district": "Dehradun", "addr:full": "58, Chakarata Road, Beside Hp Petrol Pump, Prem Nagar", "addr:postcode": "248001", "addr:state": "Uttarakhand", "amenity": "hospital", "name": "Luthra Maternity & Infertility Centre", "source": "Local Knowledge"}}, {"type": "node", "id": 7479937308, "lat": 30.3354477, "lon": 78.0167854, "tags": {"addr:district": "Dehradun", "addr:full": "Chakarata Road, Ballupur", "addr:postcode": "248001", "addr:state": "Uttarakhand", "amenity": "hospital", "name": "ONGC Hospital", "source": "Local Knowledge"}}, {"type": "node", "id": 7479937324, "lat": 30.3362003, "lon": 77.9609489, "tags": {"addr:district": "Dehradun", "addr:full": "Thakurpur Road, Tyagi Market, Shahpur, Prem Nagar", "addr:postcode": "248007", "addr:state": "Uttarakhand", "amenity": "clinic", "name": "Arora Dental Care Clinic", "source": "Local Knowledge"}}, {"type": "node", "id": 8236527614, "lat": 30.3342006, "lon": 78.0812465, "tags": {"addr:city": "Dehradun", "addr:district": "Dehradun", "addr:full": "Rahat", "addr:postcode": "248008", "addr:state": "Uttarakhand", "addr:street": "Aamwala, Dehradun, Uttarakhand", "amenity": "hospital", "emergency": "yes", "healthcare": "hospital", "name": "Government Hospital, Rahat", "source": "Local Knowledge"}}, {"type": "node", "id": 8265626138, "lat": 30.5711946, "lon": 78.0050379, "tags": {"addr:district": "Tehri Garhwal", "addr:full": "Nainbagh", "addr:postcode": "249186", "addr:state": "Uttarakhand", "amenity": "hospital", "name": "Government Hospital, Nainbagh", "source": "Local Knowledge"}}, {"type": "node", "id": 8266127301, "lat": 30.3693603, "lon": 78.0726454, "tags": {"addr:city": "Dehradun", "addr:housenumber": "25", "addr:postcode": "248001", "addr:street": "Ok Plaza, 25, New Road, New Dwarka store", "amenity": "clinic", "healthcare": "clinic", "healthcare:speciality": "orthopaedics", "name": "Dr Gaurav Gupta joint replacement and arthroscopy surgeon Dehradun", "website": "https://www.drgauravorthosurgeon.com/drgauravorthosurgeon"}}, {"type": "node", "id": 8512755850, "lat": 30.3519545, "lon": 78.0665833, "tags": {"addr:city": "Dehradun", "addr:housenumber": "8/6, Body Guard", "addr:postcode": "248001", "addr:street": "Canal Road", "amenity": "hospital", "description": "Opposite NIVH", "emergency": "yes", "healthcare": "hospital", "healthcare:speciality": "ophthalmology", "name": "Dr Smriti Eye Centre", "operator": "Dr Smriti Jain", "operator:type": "private"}}, {"type": "node", "id": 10173583536, "lat": 30.3382771, "lon": 78.0206133, "tags": {"addr:city": "Dehradun", "addr:housenumber": "291/272", "addr:postcode": "248001", "addr:street": "Kaulagarh Road", "amenity": "clinic", "healthcare": "clinic", "healthcare:speciality": "general;cardiology", "name": "Care Clinic", "opening_hours": "14:00- 22:00", "operator": "DR Kumar Gaurav Sharma", "operator:type": "private"}}, {"type": "node", "id": 10790105930, "lat": 30.3352245, "lon": 78.0159348, "tags": {"addr:city": "Dehradun", "addr:postcode": "248001", "addr:street": "SP Wahi ONGC Hospital,", "amenity": "hospital", "healthcare": "hospital", "healthcare:speciality": "joint_replacement;trauma", "name": "Archit Clinic", "operator": "Novosalus", "operator:type": "private"}}, {"type": "node", "id": 11691647039, "lat": 30.3286997, "lon": 78.0660533, "tags": {"amenity": "hospital", "healthcare": "hospital", "name": "healing touch HOSPITAL"}}, {"type": "node", "id": 11718292127, "lat": 30.3321602, "lon": 78.0595528, "tags": {"amenity": "hospital", "healthcare": "hospital", "name": "VAISH NURSING HOME"}}, {"type": "node", "id": 12567095782, "lat": 30.3400187, "lon": 78.0378799}, {"type": "node", "id": 12567095783, "lat": 30.3399853, "lon": 78.0377844}, {"type": "node", "id": 12567095784, "lat": 30.3399575, "lon": 78.0379196}, {"type": "node", "id": 12567095785, "lat": 30.3399937, "lon": 78.0379776}, {"type": "node", "id": 12593415466, "lat": 30.3763701, "lon": 78.0671501, "tags": {"amenity": "hospital", "healthcare": "hospital", "name": "Tulas owner"}}, {"type": "way", "id": 330695034, "nodes": [3376869655, 5951880717, 5951880716, 3376869657, 5951880719, 5951880718, 3376869658, 5951880720, 3376869655], "tags": {"addr:city": "Dehradun", "addr:housenumber": "Thana", "addr:postcode": "248003", "addr:street": "Garhi Cantt", "amenity": "police", "building": "yes", "name": "Garhi Cantt Police Station", "operator": "Uttarakhand Police"}}, {"type": "way", "id": 621301948, "nodes": [5869289724, 5869289725, 5869289726, 5869289727, 5869289728, 5869289729, 5869289730, 5869289731, 5869289732, 5869289733, 5869289734, 5869289724], "tags": {"addr:city": "Dehradun", "addr:postcode": "248001", "addr:street": "Dehradun-Mussoorie Road", "amenity": "hospital", "emergency": "yes", "healthcare": "hospital", "name": "Max Super Speciality Hospital"}}, {"type": "way", "id": 629798229, "nodes": [5948004902, 5948004901, 5948004900, 5948004899, 5948004898, 5948004897, 5948004896, 5948004895, 5948004894, 5948004893, 5948004902], "tags": {"amenity": "hospital", "building": "yes"}}, {"type": "way", "id": 1357944888, "nodes": [12567095782, 12567095783, 12567095784, 12567095785, 12567095782], "tags": {"amenity": "hospital", "healthcare": "hospital", "name": "Disaster Relief Center"}}]}