{"version": 0.6, "generator": "Overpass API 0.7.62.5 1bd436f1", "osm3s": {"timestamp_osm_base": "2025-05-13T11:05:59Z", "copyright": "The data included in this document is from www.openstreetmap.org. The data is made available under ODbL."}, "elements": [{"type": "node", "id": 2902824207, "lat": 30.4358234, "lon": 77.6205568, "tags": {"amenity": "police", "name": "Police Station Paonta Sahib"}}, {"type": "node", "id": 6951957224, "lat": 30.4719649, "lon": 77.7767081, "tags": {"addr:district": "Dehradun", "addr:full": "Main Road, Vikas Nagar", "addr:postcode": "248198", "addr:state": "Uttarakhand", "amenity": "hospital", "name": "Chauhan Hospital", "source": "OpenGovernmentData"}}, {"type": "node", "id": 6952104090, "lat": 30.4483164, "lon": 77.7554543, "tags": {"addr:district": "Dehradun", "addr:full": "Herbertpur", "addr:postcode": "248001", "addr:state": "Uttarakhand", "amenity": "hospital", "name": "Herbertpur Christian Hospital", "source": "OpenGovernmentData"}}, {"type": "node", "id": 6952161744, "lat": 30.4694358, "lon": 77.766729, "tags": {"addr:district": "Dehradun", "addr:full": "Pahari Gali, Vikasnagar", "addr:postcode": "248001", "addr:state": "Uttarakhand", "amenity": "hospital", "healthcare": "hospital", "healthcare:speciality": "general;internal;otolaryngology", "name": "Bhandari Hospital", "source": "OpenGovernmentData;local knowledge"}}, {"type": "node", "id": 6953276749, "lat": 30.468733, "lon": 77.7664527, "tags": {"addr:district": "Dehradun", "addr:full": "Bhandari Hospital, Vikas Nagar", "addr:postcode": "248001", "addr:state": "Uttarakhand", "amenity": "clinic", "name": "Doon Eye Care", "source": "OpenGovernmentData"}}, {"type": "node", "id": 6957974287, "lat": 30.4708691, "lon": 77.7792495, "tags": {"addr:district": "Dehradun", "addr:full": "Sayed Road Vikasnagar", "addr:postcode": "248198", "addr:state": "Uttarakhand", "amenity": "hospital", "name": "Krishna Surgical Centre", "source": "OpenGovernmentData"}}, {"type": "node", "id": 6988304581, "lat": 30.4392079, "lon": 77.6236372, "tags": {"addr:district": "Sirmaur", "addr:full": "Bypass Road, Paonta Sahib", "addr:postcode": "173025", "addr:state": "Himachal Pradesh", "amenity": "hospital", "name": "Vohra Hospital, Sirmaur", "source": "OpenGovernmentData"}}, {"type": "node", "id": 6988583114, "lat": 30.4370722, "lon": 77.6204829, "tags": {"addr:district": "Sirmaur", "addr:full": "Paonta", "addr:postcode": "173025", "addr:state": "Himachal Pradesh", "amenity": "hospital", "contact:phone": "01704-222172", "description": "Civil Hospital", "name": "Civil Hospital, Paonta Sahib", "operator:type": "government", "source": "OpenGovernmentData"}}, {"type": "node", "id": 6990762315, "lat": 30.4472678, "lon": 77.6433554, "tags": {"addr:district": "Sirmaur", "addr:full": "Campus-Himachal Institute Of Dental Science,Rampur Ghat Road", "addr:postcode": "173025", "addr:state": "Himachal Pradesh", "amenity": "hospital", "name": "Puran Hospital, Sirmaur", "source": "OpenGovernmentData"}}, {"type": "node", "id": 6993508901, "lat": 30.4474875, "lon": 77.644785, "tags": {"addr:district": "Sirmaur", "addr:full": "Paonta Sahib", "addr:state": "Himachal Pradesh", "amenity": "hospital", "healthcare:speciality": "Oral Pathology; Prosthodontics; Periodontics; Orthodontics; Pedodontics; Oral Surgery; Conservative dentistry and Endodontics; Oral; Medicine and Radiology", "name": "Himachal Institute of Dental Sciences Hospital", "operator:type": "private", "source": "OpenGovernmentData"}}, {"type": "node", "id": 7165506389, "lat": 30.4869114, "lon": 77.7368617, "tags": {"addr:block": "Rajpura", "addr:district": "Sirmaur", "addr:full": "Dakpathar Road, Near BSNL Telephone Exchange, Bhagani", "addr:postcode": "173025", "addr:state": "Himachal Pradesh", "amenity": "hospital", "name": "Government Ayurvedic Health Centre, Bhagani", "source": "OpenGovernmentData"}}, {"type": "node", "id": 7165506420, "lat": 30.54224, "lon": 77.728889, "tags": {"addr:block": "Rajpura", "addr:district": "Sirmaur", "addr:full": "Rajpur", "addr:postcode": "173025", "addr:state": "Himachal Pradesh", "amenity": "hospital", "contact:phone": "1704248618", "description": "Government Hospital", "name": "Rajpura Government Hospital", "source": "OpenGovernmentData"}}, {"type": "node", "id": 7479937218, "lat": 30.3524946, "lon": 77.9363421, "tags": {"addr:district": "Dehradun", "addr:full": "Bhauwala Rajawala Road, Dehradun, Sudhowala", "addr:postcode": "248007", "addr:state": "Uttarakhand", "amenity": "hospital", "name": "Raj Hospital And Diagnostic Centre", "source": "Local Knowledge"}}, {"type": "node", "id": 7637726841, "lat": 30.440238, "lon": 77.6145588, "tags": {"addr:district": "Sirmaur", "addr:full": "Paonta Sahib", "addr:postcode": "173025", "addr:state": "Himachal Pradesh", "amenity": "clinic", "name": "Panwar Clinic", "source": "Local Knowledge"}}, {"type": "node", "id": 7637726852, "lat": 30.4404499, "lon": 77.6150688, "tags": {"addr:district": "Sirmaur", "addr:full": "Paonta Sahib", "addr:postcode": "173025", "addr:state": "Himachal Pradesh", "amenity": "clinic", "name": "Healing Hands Pediatric and Neonatology Clinic", "source": "Local Knowledge"}}, {"type": "node", "id": 7637726863, "lat": 30.4399658, "lon": 77.6279584, "tags": {"addr:district": "Sirmaur", "addr:full": "Rampur Ghat Road, Shanti Colony, Paonta Sahib", "addr:postcode": "173025", "addr:state": "Himachal Pradesh", "amenity": "hospital", "name": "Priyanshi Hospital", "source": "Local Knowledge"}}, {"type": "node", "id": 7637726876, "lat": 30.442295, "lon": 77.609994, "tags": {"addr:district": "Sirmaur", "addr:full": "Ambala-Dehradun-Haridwar Road, Paonta Sahib", "addr:postcode": "173025", "addr:state": "Himachal Pradesh", "amenity": "hospital", "name": "Shri Siddhivinayak Hospital", "source": "Local Knowledge"}}, {"type": "node", "id": 11349070130, "lat": 30.3737793, "lon": 77.8574331, "tags": {"amenity": "fire_station"}}, {"type": "node", "id": 11349234376, "lat": 30.3489023, "lon": 77.8893193}, {"type": "node", "id": 11349234377, "lat": 30.3489856, "lon": 77.8886577}, {"type": "node", "id": 11349234378, "lat": 30.3492356, "lon": 77.8880748}, {"type": "node", "id": 11349234379, "lat": 30.3503003, "lon": 77.8889331}, {"type": "node", "id": 11349234380, "lat": 30.3499825, "lon": 77.8894838}, {"type": "node", "id": 11349234381, "lat": 30.3504238, "lon": 77.8898021}, {"type": "node", "id": 11349234382, "lat": 30.350754, "lon": 77.8895411}, {"type": "node", "id": 11349234383, "lat": 30.3514669, "lon": 77.8903314}, {"type": "node", "id": 11349234384, "lat": 30.3519638, "lon": 77.8906783}, {"type": "node", "id": 11349234385, "lat": 30.3517323, "lon": 77.8910431}, {"type": "node", "id": 11349234386, "lat": 30.3520286, "lon": 77.8913185}, {"type": "node", "id": 11349234387, "lat": 30.3510657, "lon": 77.8925523}, {"type": "node", "id": 11349234388, "lat": 30.3497263, "lon": 77.8917047}, {"type": "node", "id": 11349234389, "lat": 30.3493436, "lon": 77.8913077}, {"type": "node", "id": 11349234390, "lat": 30.3501738, "lon": 77.8902384}, {"type": "node", "id": 11349234391, "lat": 30.3500503, "lon": 77.8900167}, {"type": "node", "id": 11349234412, "lat": 30.3453493, "lon": 77.8989935}, {"type": "node", "id": 11349234413, "lat": 30.3454048, "lon": 77.8986421}, {"type": "node", "id": 11349234414, "lat": 30.3457867, "lon": 77.898736}, {"type": "node", "id": 11349234415, "lat": 30.3457412, "lon": 77.8990954}, {"type": "node", "id": 12593524300, "lat": 30.4622575, "lon": 77.7674676}, {"type": "node", "id": 12593542901, "lat": 30.4621999, "lon": 77.7673248}, {"type": "node", "id": 12593542902, "lat": 30.4618902, "lon": 77.7676057}, {"type": "node", "id": 12593542903, "lat": 30.4621279, "lon": 77.7679626}, {"type": "node", "id": 12593542904, "lat": 30.4623709, "lon": 77.7677742}, {"type": "node", "id": 12747456495, "lat": 30.4396086, "lon": 77.6222635, "tags": {"amenity": "hospital", "description": "Gynaecologist and IVF Specialist", "healthcare": "hospital", "healthcare:speciality": "gynaecology;ultrasound;ivf;infertility", "name": "Aashirwad Hospital ( Dr Ratika Jindal)"}}, {"type": "way", "id": 1223536930, "nodes": [11349234376, 11349234377, 11349234378, 11349234379, 11349234380, 11349234381, 11349234382, 11349234383, 11349234384, 11349234385, 11349234386, 11349234387, 11349234388, 11349234389, 11349234390, 11349234391, 11349234376], "tags": {"amenity": "hospital", "healthcare": "hospital", "name": "Graphic Era Institue Of Medical Sciences", "operator": "Graphic Era", "operator:type": "private", "website": "https://geimshospital.com/"}}, {"type": "way", "id": 1223536934, "nodes": [11349234412, 11349234413, 11349234414, 11349234415, 11349234412], "tags": {"amenity": "hospital", "healthcare": "hospital", "name": "Shivalik Hospital (Ayurvedic)"}}, {"type": "way", "id": 1360401108, "nodes": [12593524300, 12593542901, 12593542902, 12593542903, 12593542904, 12593524300], "tags": {"addr:city": "vikasnagar", "addr:district": "dehradun", "addr:postcode": "248198", "addr:street": "By pass road", "amenity": "police", "building": "yes", "name": "police chawki"}}]}