{"version": 0.6, "generator": "Overpass API 0.7.62.5 1bd436f1", "osm3s": {"timestamp_osm_base": "2025-05-13T11:05:59Z", "copyright": "The data included in this document is from www.openstreetmap.org. The data is made available under ODbL."}, "elements": [{"type": "node", "id": 4771643944, "lat": 30.8570343, "lon": 77.7383434, "tags": {"amenity": "police"}}, {"type": "node", "id": 7127949278, "lat": 30.9429389, "lon": 77.8479762, "tags": {"addr:district": "Dehradun", "addr:full": "Tiuni", "addr:postcode": "248199", "addr:state": "Uttarakhand", "addr:subdistrict": "Tyuni", "amenity": "hospital", "name": "Government Hospital Tiuni", "source": "OpenGovernmentData"}}, {"type": "node", "id": 7127949336, "lat": 30.705156, "lon": 77.854791, "tags": {"addr:block": "Chakrata", "addr:district": "Dehradun", "addr:full": "Chakrata", "addr:postcode": "248123", "addr:state": "Uttarakhand", "amenity": "hospital", "description": "Government Hospital", "name": "Government Hospital Chakrata", "source": "OpenGovernmentData"}}]}